*******************************************************************************
JPL/HORIZONS                148 Gallia (A875 PA)           2020-Jun-20 08:20:49
Rec #:     148 (+COV) Soln.date: 2020-May-20_00:59:43   # obs: 3097 (1879-2020)
 
IAU76/J2000 helio. ecliptic osc. elements (au, days, deg., period=Julian yrs):
 
  EPOCH=  2454461.5 ! 2007-Dec-27.00 (TDB)         Residual RMS= .30637
   EC= .1866875115544667   QR= 2.253492354855479   TP= 2455205.5465973057
   OM= 145.1769386056071   W=  252.0868622312812   IN= 25.29618086872917
   A= 2.770758333199248    MA= 200.9966638264546   ADIST= 3.288024311543018
   PER= 4.61218            N= .213700771           ANGMOM= .028130514
   DAN= 2.8371             DDN= 2.52898            L= 35.5035889
   B= -23.9904203          MOID= 1.37281001        TP= 2010-Jan-09.0465973057
 
Asteroid physical parameters (km, seconds, rotational period in hours):
   GM= n.a.                RAD= 48.875             ROTPER= 20.664
   H= 7.6                  G= .150                 B-V= .858
                           ALBEDO= .164            STYP= S
 
ASTEROID comments: 
1: soln ref.= JPL#47, OCC=0
2: source=ORB
*******************************************************************************
 
 
*******************************************************************************
Ephemeris / WWW_USER Sat Jun 20 08:20:49 2020 Pasadena, USA      / Horizons
*******************************************************************************
Target body name: 148 Gallia (A875 PA)            {source: JPL#47}
Center body name: Solar System Barycenter (0)     {source: DE431}
Center-site name: BODY CENTER
*******************************************************************************
Start time      : A.D. 1969-Jun-28 00:00:00.0000 TDB
Stop  time      : A.D. 2071-May-04 00:00:00.0000 TDB
Step-size       : 7200 minutes
*******************************************************************************
Center geodetic : 0.00000000,0.00000000,0.0000000 {E-lon(deg),Lat(deg),Alt(km)}
Center cylindric: 0.00000000,0.00000000,0.0000000 {E-lon(deg),Dxy(km),Dz(km)}
Center radii    : (undefined)                                                  
Small perturbers: Yes                             {source: SB431-N16}
Output units    : AU-D
Output type     : GEOMETRIC cartesian states
Output format   : 2 (position and velocity)
Reference frame : Ecliptic of J2000.0
*******************************************************************************
Initial IAU76/J2000 heliocentric ecliptic osculating elements (au, days, deg.):
  EPOCH=  2454461.5 ! 2007-Dec-27.00 (TDB)         Residual RMS= .30637        
   EC= .1866875115544667   QR= 2.253492354855479   TP= 2455205.5465973057      
   OM= 145.1769386056071   W=  252.0868622312812   IN= 25.29618086872917       
  Equivalent ICRF heliocentric equatorial cartesian coordinates (au, au/d):
   X=-1.831412612796518E+00  Y=-2.677440803590673E+00  Z= 3.567041061490027E-01
  VX= 7.097560665452919E-03 VY=-4.508105917523332E-03 VZ=-1.963048881351252E-03
Asteroid physical parameters (km, seconds, rotational period in hours):        
   GM= n.a.                RAD= 48.875             ROTPER= 20.664              
   H= 7.6                  G= .150                 B-V= .858                   
                           ALBEDO= .164            STYP= S                     
*******************************************************************************
            JDTDB,            Calendar Date (TDB),        delta-T,                      X,                      Y,                      Z,                     VX,                     VY,                     VZ,
******************************************************************************************************************************************************************************************************************
$$SOE
2468540.500000000, A.D. 2046-Jul-14 00:00:00.0000,      69.183787,  2.272277751733480E+00, -4.319133666558327E-01, -4.548007666423783E-01, -1.966268446715471E-04,  1.119650657965453E-02, -4.271434871081526E-03,
2468545.500000000, A.D. 2046-Jul-19 00:00:00.0000,      69.183647,  2.270654002248093E+00, -3.758141048081787E-01, -4.760277933886973E-01, -4.532238477196986E-04,  1.124221047236804E-02, -4.218898463504838E-03,
2468550.500000000, A.D. 2046-Jul-24 00:00:00.0000,      69.183510,  2.267742155377824E+00, -3.195012579115964E-01, -4.969849730439505E-01, -7.118352973276000E-04,  1.128191693076330E-02, -4.163495251909297E-03,
2468555.500000000, A.D. 2046-Jul-29 00:00:00.0000,      69.183378,  2.263532603388869E+00, -2.630051641914860E-01, -5.176579632932472E-01, -9.722740027374501E-04,  1.131548634659316E-02, -4.105222613556033E-03,
2468560.500000000, A.D. 2046-Aug-03 00:00:00.0000,      69.183251,  2.258016695239354E+00, -2.063568472470531E-01, -5.380324192810090E-01, -1.234344505204396E-03,  1.134278427249707E-02, -4.044082183661246E-03,
2468565.500000000, A.D. 2046-Aug-08 00:00:00.0000,      69.183129,  2.251186777474741E+00, -1.495879888323083E-01, -5.580940153239647E-01, -1.497843262888144E-03,  1.136368198890234E-02, -3.980080023039361E-03,
2468570.500000000, A.D. 2046-Aug-13 00:00:00.0000,      69.183012,  2.243036234093071E+00, -9.273089878935344E-02, -5.778284674370222E-01, -1.762558877957287E-03,  1.137805707556712E-02, -3.913226775475911E-03,
2468575.500000000, A.D. 2046-Aug-18 00:00:00.0000,      69.182901,  2.233559525168801E+00, -3.581848212143432E-02, -5.972215566183201E-01, -2.028272366260311E-03,  1.138579398334317E-02, -3.843537813797474E-03,
2468580.500000000, A.D. 2046-Aug-23 00:00:00.0000,      69.182799,  2.222752224017774E+00,  2.111579678430255E-02, -6.162591528327349E-01, -2.294757471614835E-03,  1.138678460194800E-02, -3.771033372818778E-03,
2468585.500000000, A.D. 2046-Aug-28 00:00:00.0000,      69.182706,  2.210611052675299E+00,  7.803795275655566E-02, -6.349272396228420E-01, -2.561781026373982E-03,  1.138092882071872E-02, -3.695738667068232E-03,
2468590.500000000, A.D. 2046-Sep-02 00:00:00.0000,      69.182624,  2.197133915455971E+00,  1.349135212192289E-01, -6.532119392671695E-01, -2.829103358022330E-03,  1.136813507908014E-02, -3.617683991769034E-03,
2468595.500000000, A.D. 2046-Sep-07 00:00:00.0000,      69.182551,  2.182319930367383E+00,  1.917076022890127E-01, -6.710995383989452E-01, -3.096478740874448E-03,  1.134832090264585E-02, -3.536904805847005E-03,
2468600.500000000, A.D. 2046-Sep-12 00:00:00.0000,      69.182487,  2.166169458154318E+00,  2.483849075085245E-01, -6.885765139922331E-01, -3.363655892039886E-03,  1.132141342062323E-02, -3.453441795651625E-03,
2468605.500000000, A.D. 2046-Sep-17 00:00:00.0000,      69.182434,  2.148684128754487E+00,  3.049098091108602E-01, -7.056295596156250E-01, -3.630378510647030E-03,  1.128734986027402E-02, -3.367340918034777E-03,
2468610.500000000, A.D. 2046-Sep-22 00:00:00.0000,      69.182392,  2.129866864952882E+00,  3.612463916904154E-01, -7.222456118470379E-01, -3.896385858884627E-03,  1.124607801427524E-02, -3.278653421513206E-03,
2468615.500000000, A.D. 2046-Sep-27 00:00:00.0000,      69.182363,  2.109721903030298E+00,  4.173585061342777E-01, -7.384118767371292E-01, -4.161413382937724E-03,  1.119755667692081E-02, -3.187435844375639E-03,
2468620.500000000, A.D. 2046-Oct-02 00:00:00.0000,      69.182348,  2.088254810212353E+00,  4.732098256485196E-01, -7.541158562035813E-01, -4.425193371404617E-03,  1.114175604523930E-02, -3.093749988785534E-03,
2468625.500000000, A.D. 2046-Oct-07 00:00:00.0000,      69.182344,  2.065472498738671E+00,  5.287639036944981E-01, -7.693453742343460E-01, -4.687455648298279E-03,  1.107865808126489E-02, -2.997662870161599E-03,
2468630.500000000, A.D. 2046-Oct-12 00:00:00.0000,      69.182351,  2.041383236387494E+00,  5.839842336319072E-01, -7.840886027749688E-01, -4.947928297267582E-03,  1.100825683189276E-02, -2.899246641377966E-03,
2468635.500000000, A.D. 2046-Oct-17 00:00:00.0000,      69.182369,  2.015996653309032E+00,  6.388343098480243E-01, -7.983340871735701E-01, -5.206338413207767E-03,  1.093055870295393E-02, -2.798578491625195E-03,
2468640.500000000, A.D. 2046-Oct-22 00:00:00.0000,      69.182400,  1.989323745041084E+00,  6.932776901361617E-01, -8.120707710569890E-01, -5.462412877002786E-03,  1.084558268429506E-02, -2.695740520053751E-03,
2468645.500000000, A.D. 2046-Oct-27 00:00:00.0000,      69.182445,  1.961376871602525E+00,  7.472780590704411E-01, -8.252880205126788E-01, -5.715879148874970E-03,  1.075336052269967E-02, -2.590819584474928E-03,
2468650.500000000, A.D. 2046-Nov-01 00:00:00.0000,      69.182502,  1.932169752582742E+00,  8.007992921083484E-01, -8.379756474520117E-01, -5.966466075968267E-03,  1.065393683962126E-02, -2.483907125202525E-03,
2468655.500000000, A.D. 2046-Nov-06 00:00:00.0000,      69.182569,  1.901717458166087E+00,  8.538055201395618E-01, -8.501239320303309E-01, -6.213904710023657E-03,  1.054736919180384E-02, -2.375098963937782E-03,
2468660.500000000, A.D. 2046-Nov-11 00:00:00.0000,      69.182646,  1.870036396053591E+00,  9.062611941945470E-01, -8.617236440009722E-01, -6.457929129681505E-03,  1.043372807457925E-02, -2.264495078845384E-03,
2468665.500000000, A.D. 2046-Nov-16 00:00:00.0000,      69.182732,  1.837144294276753E+00,  9.581311500248022E-01, -8.727660628906240E-01, -6.698277260164128E-03,  1.031309686686064E-02, -2.152199358406977E-03,
2468670.500000000, A.D. 2046-Nov-21 00:00:00.0000,      69.182829,  1.803060179931802E+00,  1.009380672256919E+00, -8.832429968937419E-01, -6.934691684715114E-03,  1.018557171532348E-02, -2.038319335189621E-03,
2468675.500000000, A.D. 2046-Nov-26 00:00:00.0000,      69.182936,  1.767804353885280E+00,  1.059975557813633E+00, -8.931468003854497E-01, -7.166920443937068E-03,  1.005126135714809E-02, -1.922965899555645E-03,
